"AFF_ID","AFF_NUM","ACHAT","LOCATION","CATEGORIE_MERE","CATEGORIE","CODE_POSTAL","VILLE","PAYS","PRIX","LOYER","CHARGES","MONTANT_HONO_ACQ","FRAIS_AGENCE","NOM_FRANCAIS","DESCRIPTION","LIBRELE","SURFACE_HABITABLE","SURFACE_TERRAIN","NBRE_PIECES","NBRE_CHAMBRES","NUM_ETAGE","NUM_DERNIER_ETAGE","MEUBLE","NBRE_SALLE_BAIN","NBRE_SALLE_EAU","NBRE_WC","CHAUFFAGE","CUISINE","NBRE_BALCON","ASCENSEUR","NBRE_CAVES","NBRE_PARKING","NBRE_GARAGE","DIGICODE","INTERPHONE","GARDIEN","NBRE_TERRASSE","ALARME","CALME","CLIMATISATION","PISCINE","ACCES_HANDICAPES","CHEMINEE","URL_360","VISITE_VIRTUELLE","NUM_MANDAT","AGENCE_ADRESSE","AGENCE_CP","AGENCE_VILLE","AGENCE_TELEPHONE","AGENCE PORTABLE ","AGENCE_NOM","LATITUDE","LONGITUDE"
"31838366","132","","","31","31","34000"," MONTPELLIER "," France ","700850.00","[object Object]","{undefined}","undefined","undefined","[object Object]","","{","[object Object]","[object Object]","[object Object]","[object Object]","undefined","undefined","[object Object]","[object Object]","[object Object]","[object Object]","[object Object]","[object Object]","[object Object]","[object Object]","[object Object]","[object Object]","[object Object]","[object Object]","[object Object]","[object Object]","[object Object]","undefined","[object Object]","[object Object]","undefined","undefined","undefined","`${LISTEPA.BIEN[i].}"," ",""," 1 place Rondelet ","34000"," Montpellier ","+33 9 87 52 53 35","[object Object]","
L'ADRESSE EFFICIENCE - MONTPELLIER SAINT-ROCH - L'Adresse Efficience - Montpellier Saint-Roch
","`${LISTEPA.BIEN[i].}","hello"
"31838351","131","","","29","29","34000"," MONTPELLIER "," France ","452230.00","[object Object]","{undefined}","undefined","undefined","[object Object]","","{","[object Object]","[object Object]","[object Object]","[object Object]","undefined","undefined","[object Object]","[object Object]","[object Object]","[object Object]","[object Object]","[object Object]","[object Object]","[object Object]","[object Object]","[object Object]","[object Object]","[object Object]","[object Object]","[object Object]","[object Object]","undefined","[object Object]","[object Object]","undefined","undefined","undefined","`${LISTEPA.BIEN[i].}"," ",""," 1 place Rondelet ","34000"," Montpellier ","+33 9 87 52 53 35","[object Object]","
L'ADRESSE EFFICIENCE - MONTPELLIER SAINT-ROCH - L'Adresse Efficience - Montpellier Saint-Roch
","`${LISTEPA.BIEN[i].}","hello"
"31824718","130","","","28","28","34000"," Montpellier "," France ","458000.00","[object Object]","{undefined}","undefined","undefined","[object Object]","","{","[object Object]","[object Object]","[object Object]","[object Object]","undefined","undefined","[object Object]","[object Object]","[object Object]","[object Object]","[object Object]","[object Object]","[object Object]","[object Object]","[object Object]","[object Object]","[object Object]","[object Object]","[object Object]","[object Object]","[object Object]","undefined","[object Object]","[object Object]","undefined","undefined","undefined","`${LISTEPA.BIEN[i].}"," ",""," 1 place Rondelet ","34000"," Montpellier ","+33 9 87 52 53 35","[object Object]","
L'ADRESSE EFFICIENCE - MONTPELLIER SAINT-ROCH - L'Adresse Efficience - Montpellier Saint-Roch
","`${LISTEPA.BIEN[i].}","hello"
"31824717","129","","","28","28","34000"," Montpellier "," France ","249000.00","[object Object]","{undefined}","undefined","undefined","[object Object]","","{","[object Object]","[object Object]","[object Object]","[object Object]","undefined","undefined","[object Object]","[object Object]","[object Object]","[object Object]","[object Object]","[object Object]","[object Object]","[object Object]","[object Object]","[object Object]","[object Object]","[object Object]","[object Object]","[object Object]","[object Object]","undefined","[object Object]","[object Object]","undefined","undefined","undefined","`${LISTEPA.BIEN[i].}"," ",""," 1 place Rondelet ","34000"," Montpellier ","+33 9 87 52 53 35","[object Object]","
L'ADRESSE EFFICIENCE - MONTPELLIER SAINT-ROCH - L'Adresse Efficience - Montpellier Saint-Roch
","`${LISTEPA.BIEN[i].}","hello"
"31777195","34170-MEI-T5-cpy","","","49","49","34170"," CASTELNAU LE LEZ "," France ","578000.00","[object Object]","{undefined}","undefined","undefined","[object Object]","","{","[object Object]","[object Object]","[object Object]","[object Object]","undefined","undefined","[object Object]","[object Object]","[object Object]","[object Object]","[object Object]","[object Object]","[object Object]","[object Object]","[object Object]","[object Object]","[object Object]","[object Object]","[object Object]","[object Object]","[object Object]","undefined","[object Object]","[object Object]","undefined","undefined","undefined","`${LISTEPA.BIEN[i].}"," ","34170-MEI"," 1 place Rondelet ","34000"," Montpellier ","+33 9 87 52 53 35","[object Object]","
L'ADRESSE EFFICIENCE - MONTPELLIER SAINT-ROCH - L'Adresse Efficience - Montpellier Saint-Roch
","`${LISTEPA.BIEN[i].}","hello"
"31777194","34170-MEI-T3-cpy","","","49","49","34170"," CASTELNAU LE LEZ "," France ","289000.00","[object Object]","{undefined}","undefined","undefined","[object Object]","","{","[object Object]","[object Object]","[object Object]","[object Object]","undefined","undefined","[object Object]","[object Object]","[object Object]","[object Object]","[object Object]","[object Object]","[object Object]","[object Object]","[object Object]","[object Object]","[object Object]","[object Object]","[object Object]","[object Object]","[object Object]","undefined","[object Object]","[object Object]","undefined","undefined","undefined","`${LISTEPA.BIEN[i].}"," ","34170-MEI"," 1 place Rondelet ","34000"," Montpellier ","+33 9 87 52 53 35","[object Object]","
L'ADRESSE EFFICIENCE - MONTPELLIER SAINT-ROCH - L'Adresse Efficience - Montpellier Saint-Roch
","`${LISTEPA.BIEN[i].}","hello"
"31777193","34170-MEI-T2-cpy","","","49","49","34170"," CASTELNAU LE LEZ "," France ","213000.00","[object Object]","{undefined}","undefined","undefined","[object Object]","","{","[object Object]","[object Object]","[object Object]","[object Object]","undefined","undefined","[object Object]","[object Object]","[object Object]","[object Object]","[object Object]","[object Object]","[object Object]","[object Object]","[object Object]","[object Object]","[object Object]","[object Object]","[object Object]","[object Object]","[object Object]","undefined","[object Object]","[object Object]","undefined","undefined","undefined","`${LISTEPA.BIEN[i].}"," ","34170-MEI"," 1 place Rondelet ","34000"," Montpellier ","+33 9 87 52 53 35","[object Object]","
L'ADRESSE EFFICIENCE - MONTPELLIER SAINT-ROCH - L'Adresse Efficience - Montpellier Saint-Roch
","`${LISTEPA.BIEN[i].}","hello"
"31777133","34170-MEI-T1-cpy","","","49","49","34170"," CASTELNAU LE LEZ "," France ","168000.00","[object Object]","{undefined}","undefined","undefined","[object Object]","","{","[object Object]","[object Object]","[object Object]","[object Object]","undefined","undefined","[object Object]","[object Object]","[object Object]","[object Object]","[object Object]","[object Object]","[object Object]","[object Object]","[object Object]","[object Object]","[object Object]","[object Object]","[object Object]","[object Object]","[object Object]","undefined","[object Object]","[object Object]","undefined","undefined","undefined","`${LISTEPA.BIEN[i].}"," ","34170-MEI"," 1 place Rondelet ","34000"," Montpellier ","+33 9 87 52 53 35","[object Object]","
L'ADRESSE EFFICIENCE - MONTPELLIER SAINT-ROCH - L'Adresse Efficience - Montpellier Saint-Roch
","`${LISTEPA.BIEN[i].}","hello"
"31777132","34170-MEI-cpy","","","","","34170"," CASTELNAU LE LEZ "," France ","168000.00","[object Object]","{undefined}","undefined","undefined","[object Object]","","{","undefined","undefined","undefined","undefined","undefined","undefined","undefined","undefined","undefined","undefined","undefined","undefined","undefined","undefined","undefined","undefined","undefined","undefined","undefined","undefined","undefined","undefined","undefined","undefined","undefined","undefined","undefined","`${LISTEPA.BIEN[i].}"," ","34170-MEI"," 1 place Rondelet ","34000"," Montpellier ","+33 9 87 52 53 35","[object Object]","
L'ADRESSE EFFICIENCE - MONTPELLIER SAINT-ROCH - L'Adresse Efficience - Montpellier Saint-Roch
","`${LISTEPA.BIEN[i].}","hello"
"31776494","34000-SUN-T4-cpy","","","49","49","34070"," MONTPELLIER "," France ","419000.00","[object Object]","{undefined}","undefined","undefined","[object Object]","","{","[object Object]","[object Object]","[object Object]","[object Object]","undefined","undefined","[object Object]","[object Object]","[object Object]","[object Object]","[object Object]","[object Object]","[object Object]","[object Object]","[object Object]","[object Object]","[object Object]","[object Object]","[object Object]","[object Object]","[object Object]","undefined","[object Object]","[object Object]","undefined","undefined","undefined","`${LISTEPA.BIEN[i].}"," ","34000-SUN"," 1 place Rondelet ","34000"," Montpellier ","+33 9 87 52 53 35","[object Object]","
L'ADRESSE EFFICIENCE - MONTPELLIER SAINT-ROCH - L'Adresse Efficience - Montpellier Saint-Roch
","`${LISTEPA.BIEN[i].}","hello"
"31776493","34000-SUN-M-cpy","","","","","34070"," MONTPELLIER "," France ","379000.00","[object Object]","{undefined}","undefined","undefined","[object Object]","","{","undefined","undefined","undefined","undefined","undefined","undefined","undefined","undefined","undefined","undefined","undefined","undefined","undefined","undefined","undefined","undefined","undefined","undefined","undefined","undefined","undefined","[object Object]","undefined","undefined","[object Object]","[object Object]","[object Object]","`${LISTEPA.BIEN[i].}"," ","34000-SUN"," 1 place Rondelet ","34000"," Montpellier ","+33 9 87 52 53 35","[object Object]","
L'ADRESSE EFFICIENCE - MONTPELLIER SAINT-ROCH - L'Adresse Efficience - Montpellier Saint-Roch
","`${LISTEPA.BIEN[i].}","hello"
"31776451","34000-SUN-LC-cpy","","","","","34070"," MONTPELLIER "," France ","145750.00","[object Object]","{undefined}","undefined","undefined","[object Object]","","{","undefined","undefined","undefined","undefined","undefined","undefined","undefined","undefined","undefined","undefined","undefined","undefined","undefined","undefined","undefined","undefined","undefined","undefined","undefined","undefined","undefined","undefined","undefined","undefined","undefined","undefined","undefined","`${LISTEPA.BIEN[i].}"," ","34000-SUN"," 1 place Rondelet ","34000"," Montpellier ","+33 9 87 52 53 35","[object Object]","
L'ADRESSE EFFICIENCE - MONTPELLIER SAINT-ROCH - L'Adresse Efficience - Montpellier Saint-Roch
","`${LISTEPA.BIEN[i].}","hello"
"31769368","34170-FRA-T5-cpy","","","49","49","34170"," CASTELNAU LE LEZ "," France ","438000.00","[object Object]","{undefined}","undefined","undefined","[object Object]","","{","[object Object]","[object Object]","[object Object]","[object Object]","undefined","undefined","[object Object]","[object Object]","[object Object]","[object Object]","[object Object]","[object Object]","[object Object]","[object Object]","[object Object]","[object Object]","[object Object]","[object Object]","[object Object]","[object Object]","[object Object]","undefined","[object Object]","[object Object]","undefined","undefined","undefined","`${LISTEPA.BIEN[i].}"," ","8684"," 1 place Rondelet ","34000"," Montpellier ","+33 9 87 52 53 35","[object Object]","
L'ADRESSE EFFICIENCE - MONTPELLIER SAINT-ROCH - L'Adresse Efficience - Montpellier Saint-Roch
","`${LISTEPA.BIEN[i].}","hello"
"31769367","34170-FRA-T4-cpy","","","49","49","34170"," CASTELNAU LE LEZ "," France ","410000.00","[object Object]","{undefined}","undefined","undefined","[object Object]","","{","[object Object]","[object Object]","[object Object]","[object Object]","undefined","undefined","[object Object]","[object Object]","[object Object]","[object Object]","[object Object]","[object Object]","[object Object]","[object Object]","[object Object]","[object Object]","[object Object]","[object Object]","[object Object]","[object Object]","[object Object]","undefined","[object Object]","[object Object]","undefined","undefined","undefined","`${LISTEPA.BIEN[i].}"," ","8684"," 1 place Rondelet ","34000"," Montpellier ","+33 9 87 52 53 35","[object Object]","
L'ADRESSE EFFICIENCE - MONTPELLIER SAINT-ROCH - L'Adresse Efficience - Montpellier Saint-Roch
","`${LISTEPA.BIEN[i].}","hello"
"31769366","34170-FRA-T3-cpy","","","49","49","34170"," CASTELNAU LE LEZ "," France ","277000.00","[object Object]","{undefined}","undefined","undefined","[object Object]","","{","[object Object]","[object Object]","[object Object]","[object Object]","undefined","undefined","[object Object]","[object Object]","[object Object]","[object Object]","[object Object]","[object Object]","[object Object]","[object Object]","[object Object]","[object Object]","[object Object]","[object Object]","[object Object]","[object Object]","[object Object]","undefined","[object Object]","[object Object]","undefined","undefined","undefined","`${LISTEPA.BIEN[i].}"," ","8684"," 1 place Rondelet ","34000"," Montpellier ","+33 9 87 52 53 35","[object Object]","
L'ADRESSE EFFICIENCE - MONTPELLIER SAINT-ROCH - L'Adresse Efficience - Montpellier Saint-Roch
","`${LISTEPA.BIEN[i].}","hello"
"31769365","34170-FRA-MT3-cpy","","","","","34170"," CASTELNAU LE LEZ "," France ","262000.00","[object Object]","{undefined}","undefined","undefined","[object Object]","","{","undefined","undefined","undefined","undefined","undefined","undefined","undefined","undefined","undefined","undefined","undefined","undefined","undefined","undefined","undefined","undefined","undefined","undefined","undefined","undefined","undefined","[object Object]","undefined","undefined","[object Object]","[object Object]","[object Object]","`${LISTEPA.BIEN[i].}"," ",""," 1 place Rondelet ","34000"," Montpellier ","+33 9 87 52 53 35","[object Object]","
L'ADRESSE EFFICIENCE - MONTPELLIER SAINT-ROCH - L'Adresse Efficience - Montpellier Saint-Roch
","`${LISTEPA.BIEN[i].}","hello"
"31769284","34170-FRA-T2-cpy","","","49","49","34170"," CASTELNAU LE LEZ "," France ","212000.00","[object Object]","{undefined}","undefined","undefined","[object Object]","","{","[object Object]","[object Object]","[object Object]","[object Object]","undefined","undefined","[object Object]","[object Object]","[object Object]","[object Object]","[object Object]","[object Object]","[object Object]","[object Object]","[object Object]","[object Object]","[object Object]","[object Object]","[object Object]","[object Object]","[object Object]","undefined","[object Object]","[object Object]","undefined","undefined","undefined","`${LISTEPA.BIEN[i].}"," ","8684"," 1 place Rondelet ","34000"," Montpellier ","+33 9 87 52 53 35","[object Object]","
L'ADRESSE EFFICIENCE - MONTPELLIER SAINT-ROCH - L'Adresse Efficience - Montpellier Saint-Roch
","`${LISTEPA.BIEN[i].}","hello"
"31769364","34170-FRA-T1-cpy","","","49","49","34170"," OCCITANIE "," France ","161000.00","[object Object]","{undefined}","undefined","undefined","[object Object]","","{","[object Object]","[object Object]","[object Object]","[object Object]","undefined","undefined","[object Object]","[object Object]","[object Object]","[object Object]","[object Object]","[object Object]","[object Object]","[object Object]","[object Object]","[object Object]","[object Object]","[object Object]","[object Object]","[object Object]","[object Object]","undefined","[object Object]","[object Object]","undefined","undefined","undefined","`${LISTEPA.BIEN[i].}"," ","8684"," 1 place Rondelet ","34000"," Montpellier ","+33 9 87 52 53 35","[object Object]","
L'ADRESSE EFFICIENCE - MONTPELLIER SAINT-ROCH - L'Adresse Efficience - Montpellier Saint-Roch
","`${LISTEPA.BIEN[i].}","hello"
"31767419","122","","","","","34070"," MONTPELLIER "," France ","100000.00","[object Object]","{undefined}","undefined","undefined","[object Object]","","{","undefined","undefined","undefined","undefined","undefined","undefined","undefined","undefined","undefined","undefined","undefined","undefined","undefined","undefined","undefined","undefined","undefined","undefined","undefined","undefined","undefined","undefined","undefined","undefined","undefined","undefined","undefined","`${LISTEPA.BIEN[i].}"," ",""," 1 place Rondelet ","34000"," Montpellier ","+33 9 87 52 53 35","[object Object]","
L'ADRESSE EFFICIENCE - MONTPELLIER SAINT-ROCH - L'Adresse Efficience - Montpellier Saint-Roch
","`${LISTEPA.BIEN[i].}","hello"
"31767368","121","","","","","34000"," MONTPELLIER "," France ","83000.00","[object Object]","{undefined}","undefined","undefined","[object Object]","","{","undefined","undefined","undefined","undefined","undefined","undefined","undefined","undefined","undefined","undefined","undefined","undefined","undefined","undefined","undefined","undefined","undefined","undefined","undefined","undefined","undefined","undefined","undefined","undefined","undefined","undefined","undefined","`${LISTEPA.BIEN[i].}"," ",""," 1 place Rondelet ","34000"," Montpellier ","+33 9 87 52 53 35","[object Object]","
L'ADRESSE EFFICIENCE - MONTPELLIER SAINT-ROCH - L'Adresse Efficience - Montpellier Saint-Roch
","`${LISTEPA.BIEN[i].}","hello"
"31767286","119","","","","","34070"," MONTPELLIER "," France ","160000.00","[object Object]","{undefined}","undefined","undefined","[object Object]","","{","undefined","undefined","undefined","undefined","undefined","undefined","undefined","undefined","undefined","undefined","undefined","undefined","undefined","undefined","undefined","undefined","undefined","undefined","undefined","undefined","undefined","undefined","undefined","undefined","undefined","undefined","undefined","`${LISTEPA.BIEN[i].}"," ",""," 1 place Rondelet ","34000"," Montpellier ","+33 9 87 52 53 35","[object Object]","
L'ADRESSE EFFICIENCE - MONTPELLIER SAINT-ROCH - L'Adresse Efficience - Montpellier Saint-Roch
","`${LISTEPA.BIEN[i].}","hello"
"31767241","117","","","","","34070"," MONTPELLIER "," France ","90800.00","[object Object]","{undefined}","undefined","undefined","[object Object]","","{","undefined","undefined","undefined","undefined","undefined","undefined","undefined","undefined","undefined","undefined","undefined","undefined","undefined","undefined","undefined","undefined","undefined","undefined","undefined","undefined","undefined","undefined","undefined","undefined","undefined","undefined","undefined","`${LISTEPA.BIEN[i].}"," ",""," 1 place Rondelet ","34000"," Montpellier ","+33 9 87 52 53 35","[object Object]","
L'ADRESSE EFFICIENCE - MONTPELLIER SAINT-ROCH - L'Adresse Efficience - Montpellier Saint-Roch
","`${LISTEPA.BIEN[i].}","hello"
"31767240","116","","","","","34000"," MONTPELLIER "," France ","82000.00","[object Object]","{undefined}","undefined","undefined","[object Object]","","{","undefined","undefined","undefined","undefined","undefined","undefined","undefined","undefined","undefined","undefined","undefined","undefined","undefined","undefined","undefined","undefined","undefined","undefined","undefined","undefined","undefined","undefined","undefined","undefined","undefined","undefined","undefined","`${LISTEPA.BIEN[i].}"," ",""," 1 place Rondelet ","34000"," Montpellier ","+33 9 87 52 53 35","[object Object]","
L'ADRESSE EFFICIENCE - MONTPELLIER SAINT-ROCH - L'Adresse Efficience - Montpellier Saint-Roch
","`${LISTEPA.BIEN[i].}","hello"
"31767155","115","","","","","34000"," MONTPELLIER "," France ","145000.00","[object Object]","{undefined}","undefined","undefined","[object Object]","","{","undefined","undefined","undefined","undefined","undefined","undefined","undefined","undefined","undefined","undefined","undefined","undefined","undefined","undefined","undefined","undefined","undefined","undefined","undefined","undefined","undefined","undefined","undefined","undefined","undefined","undefined","undefined","`${LISTEPA.BIEN[i].}"," ",""," 1 place Rondelet ","34000"," Montpellier ","+33 9 87 52 53 35","[object Object]","
L'ADRESSE EFFICIENCE - MONTPELLIER SAINT-ROCH - L'Adresse Efficience - Montpellier Saint-Roch
","`${LISTEPA.BIEN[i].}","hello"
"31762249","13011-ACC-T4-cpy","","","49","49","13011"," MARSEILLE "," France ","477000.00","[object Object]","{undefined}","undefined","undefined","[object Object]","","{","[object Object]","[object Object]","[object Object]","[object Object]","undefined","undefined","[object Object]","[object Object]","[object Object]","[object Object]","[object Object]","[object Object]","[object Object]","[object Object]","[object Object]","[object Object]","[object Object]","[object Object]","[object Object]","[object Object]","[object Object]","undefined","[object Object]","[object Object]","undefined","undefined","undefined","`${LISTEPA.BIEN[i].}"," ","13011-ACC"," 1 place Rondelet ","34000"," Montpellier ","+33 9 87 52 53 35","[object Object]","
L'ADRESSE EFFICIENCE - MONTPELLIER SAINT-ROCH - L'Adresse Efficience - Montpellier Saint-Roch
","`${LISTEPA.BIEN[i].}","hello"
"31762261","13011-ACC-T3-cpy","","","49","49","13011"," MARSEILLE "," France ","396000.00","[object Object]","{undefined}","undefined","undefined","[object Object]","","{","[object Object]","[object Object]","[object Object]","[object Object]","undefined","undefined","[object Object]","[object Object]","[object Object]","[object Object]","[object Object]","[object Object]","[object Object]","[object Object]","[object Object]","[object Object]","[object Object]","[object Object]","[object Object]","[object Object]","[object Object]","undefined","[object Object]","[object Object]","undefined","undefined","undefined","`${LISTEPA.BIEN[i].}"," ","13011-ACC"," 1 place Rondelet ","34000"," Montpellier ","+33 9 87 52 53 35","[object Object]","
L'ADRESSE EFFICIENCE - MONTPELLIER SAINT-ROCH - L'Adresse Efficience - Montpellier Saint-Roch
","`${LISTEPA.BIEN[i].}","hello"
"31762248","13011-ACC-T2-cpy","","","49","49","13011"," MARSEILLE "," France ","221000.00","[object Object]","{undefined}","undefined","undefined","[object Object]","","{","[object Object]","[object Object]","[object Object]","[object Object]","undefined","undefined","[object Object]","[object Object]","[object Object]","[object Object]","[object Object]","[object Object]","[object Object]","[object Object]","[object Object]","[object Object]","[object Object]","[object Object]","[object Object]","[object Object]","[object Object]","undefined","[object Object]","[object Object]","undefined","undefined","undefined","`${LISTEPA.BIEN[i].}"," ","13011-ACC"," 1 place Rondelet ","34000"," Montpellier ","+33 9 87 52 53 35","[object Object]","
L'ADRESSE EFFICIENCE - MONTPELLIER SAINT-ROCH - L'Adresse Efficience - Montpellier Saint-Roch
","`${LISTEPA.BIEN[i].}","hello"
"31762234","13011-ACC-cpy","","","","","13011"," MARSEILLE "," France ","139000.00","[object Object]","{undefined}","undefined","undefined","[object Object]","","{","undefined","undefined","undefined","undefined","undefined","undefined","undefined","undefined","undefined","undefined","undefined","undefined","undefined","undefined","undefined","undefined","undefined","undefined","undefined","undefined","undefined","undefined","undefined","undefined","undefined","undefined","undefined","`${LISTEPA.BIEN[i].}"," ","13011-ACC"," 1 place Rondelet ","34000"," Montpellier ","+33 9 87 52 53 35","[object Object]","
L'ADRESSE EFFICIENCE - MONTPELLIER SAINT-ROCH - L'Adresse Efficience - Montpellier Saint-Roch
","`${LISTEPA.BIEN[i].}","hello"
"31761390","114","","","","","34000"," MONTPELLIER "," France ","300000.00","[object Object]","{undefined}","undefined","undefined","[object Object]","","{","undefined","undefined","undefined","undefined","undefined","undefined","undefined","undefined","undefined","undefined","undefined","undefined","undefined","undefined","undefined","undefined","undefined","undefined","undefined","undefined","undefined","undefined","undefined","undefined","undefined","undefined","undefined","`${LISTEPA.BIEN[i].}"," ",""," 1 place Rondelet ","34000"," Montpellier ","+33 9 87 52 53 35","[object Object]","
L'ADRESSE EFFICIENCE - MONTPELLIER SAINT-ROCH - L'Adresse Efficience - Montpellier Saint-Roch
","`${LISTEPA.BIEN[i].}","hello"
"31700298","113","","","28","28","34670"," BAILLARGUES "," France ","176000.00","[object Object]","{undefined}","undefined","undefined","[object Object]","","{","[object Object]","[object Object]","[object Object]","[object Object]","undefined","undefined","[object Object]","[object Object]","[object Object]","[object Object]","[object Object]","[object Object]","[object Object]","[object Object]","[object Object]","[object Object]","[object Object]","[object Object]","[object Object]","[object Object]","[object Object]","undefined","[object Object]","[object Object]","undefined","undefined","undefined","`${LISTEPA.BIEN[i].}"," ",""," 1 place Rondelet ","34000"," Montpellier ","+33 9 87 52 53 35","[object Object]","
L'ADRESSE EFFICIENCE - MONTPELLIER SAINT-ROCH - L'Adresse Efficience - Montpellier Saint-Roch
","`${LISTEPA.BIEN[i].}","hello"
"31228572","72","","","31","31","34000"," montpellier "," France ","215000.00","[object Object]","{2000}","undefined","undefined","[object Object]","","{","[object Object]","[object Object]","[object Object]","[object Object]","undefined","undefined","[object Object]","[object Object]","[object Object]","[object Object]","[object Object]","[object Object]","[object Object]","[object Object]","[object Object]","[object Object]","[object Object]","[object Object]","[object Object]","[object Object]","[object Object]","undefined","[object Object]","[object Object]","undefined","undefined","undefined","`${LISTEPA.BIEN[i].}"," ",""," 1 place Rondelet ","34000"," Montpellier ","+33 9 87 52 53 35","[object Object]","
L'ADRESSE EFFICIENCE - MONTPELLIER SAINT-ROCH - L'Adresse Efficience - Montpellier Saint-Roch
","`${LISTEPA.BIEN[i].}","hello"
"31668415","83380-EUG-T4-cpy","","","49","49","83380"," ROQUEBRUNE SUR ARGENS "," France ","680000.00","[object Object]","{undefined}","undefined","undefined","[object Object]","","{","[object Object]","[object Object]","[object Object]","[object Object]","undefined","undefined","[object Object]","[object Object]","[object Object]","[object Object]","[object Object]","[object Object]","[object Object]","[object Object]","[object Object]","[object Object]","[object Object]","[object Object]","[object Object]","[object Object]","[object Object]","undefined","[object Object]","[object Object]","undefined","undefined","undefined","`${LISTEPA.BIEN[i].}"," ","8665"," 1 place Rondelet ","34000"," Montpellier ","+33 9 87 52 53 35","[object Object]","
L'ADRESSE EFFICIENCE - MONTPELLIER SAINT-ROCH - L'Adresse Efficience - Montpellier Saint-Roch
","`${LISTEPA.BIEN[i].}","hello"
"31668414","83380-EUG-T3-cpy","","","49","49","83380"," ROQUEBRUNE SUR ARGENS "," France ","375600.00","[object Object]","{undefined}","undefined","undefined","[object Object]","","{","[object Object]","[object Object]","[object Object]","[object Object]","undefined","undefined","[object Object]","[object Object]","[object Object]","[object Object]","[object Object]","[object Object]","[object Object]","[object Object]","[object Object]","[object Object]","[object Object]","[object Object]","[object Object]","[object Object]","[object Object]","undefined","[object Object]","[object Object]","undefined","undefined","undefined","`${LISTEPA.BIEN[i].}"," ",""," 1 place Rondelet ","34000"," Montpellier ","+33 9 87 52 53 35","[object Object]","
L'ADRESSE EFFICIENCE - MONTPELLIER SAINT-ROCH - L'Adresse Efficience - Montpellier Saint-Roch
","`${LISTEPA.BIEN[i].}","hello"
"31668413","83380-EUG-T2-cpy","","","49","49","83380"," ROQUEBRUNE SUR ARGENS "," France ","300800.00","[object Object]","{undefined}","undefined","undefined","[object Object]","","{","[object Object]","[object Object]","[object Object]","[object Object]","undefined","undefined","[object Object]","[object Object]","[object Object]","[object Object]","[object Object]","[object Object]","[object Object]","[object Object]","[object Object]","[object Object]","[object Object]","[object Object]","[object Object]","[object Object]","[object Object]","undefined","[object Object]","[object Object]","undefined","undefined","undefined","`${LISTEPA.BIEN[i].}"," ",""," 1 place Rondelet ","34000"," Montpellier ","+33 9 87 52 53 35","[object Object]","
L'ADRESSE EFFICIENCE - MONTPELLIER SAINT-ROCH - L'Adresse Efficience - Montpellier Saint-Roch
","`${LISTEPA.BIEN[i].}","hello"
"31668412","83380-EUG-cpy","","","","","83380"," ROQUEBRUNE SUR ARGENS "," France ","300800.00","[object Object]","{undefined}","undefined","undefined","[object Object]","","{","undefined","undefined","undefined","undefined","undefined","undefined","undefined","undefined","undefined","undefined","undefined","undefined","undefined","undefined","undefined","undefined","undefined","undefined","undefined","undefined","undefined","undefined","undefined","undefined","undefined","undefined","undefined","`${LISTEPA.BIEN[i].}"," ","8665"," 1 place Rondelet ","34000"," Montpellier ","+33 9 87 52 53 35","[object Object]","
L'ADRESSE EFFICIENCE - MONTPELLIER SAINT-ROCH - L'Adresse Efficience - Montpellier Saint-Roch
","`${LISTEPA.BIEN[i].}","hello"
"31666584","34300-ART-T3","","","","","34300"," AGDE "," France ","191400.00","[object Object]","{undefined}","undefined","undefined","[object Object]","","{","undefined","undefined","undefined","undefined","undefined","undefined","undefined","undefined","undefined","undefined","undefined","undefined","undefined","undefined","undefined","undefined","undefined","undefined","undefined","undefined","undefined","[object Object]","undefined","undefined","[object Object]","[object Object]","[object Object]","`${LISTEPA.BIEN[i].}"," ",""," 1 place Rondelet ","34000"," Montpellier ","+33 9 87 52 53 35","[object Object]","
L'ADRESSE EFFICIENCE - MONTPELLIER SAINT-ROCH - L'Adresse Efficience - Montpellier Saint-Roch
","`${LISTEPA.BIEN[i].}","hello"
"31666583","34300-ART","","","","","34300"," AGDE "," France ","191400.00","[object Object]","{undefined}","undefined","undefined","[object Object]","","{","undefined","undefined","undefined","undefined","undefined","undefined","undefined","undefined","undefined","undefined","undefined","undefined","undefined","undefined","undefined","undefined","undefined","undefined","undefined","undefined","undefined","undefined","undefined","undefined","undefined","undefined","undefined","`${LISTEPA.BIEN[i].}"," ","34300-ART"," 1 place Rondelet ","34000"," Montpellier ","+33 9 87 52 53 35","[object Object]","
L'ADRESSE EFFICIENCE - MONTPELLIER SAINT-ROCH - L'Adresse Efficience - Montpellier Saint-Roch
","`${LISTEPA.BIEN[i].}","hello"
"31665969","83400-MIL-T3","","","49","49","83400"," HYERES "," France ","215000.00","[object Object]","{undefined}","undefined","undefined","[object Object]","","{","[object Object]","[object Object]","[object Object]","[object Object]","undefined","undefined","[object Object]","[object Object]","[object Object]","[object Object]","[object Object]","[object Object]","[object Object]","[object Object]","[object Object]","[object Object]","[object Object]","[object Object]","[object Object]","[object Object]","[object Object]","undefined","[object Object]","[object Object]","undefined","undefined","undefined","`${LISTEPA.BIEN[i].}"," ",""," 1 place Rondelet ","34000"," Montpellier ","+33 9 87 52 53 35","[object Object]","
L'ADRESSE EFFICIENCE - MONTPELLIER SAINT-ROCH - L'Adresse Efficience - Montpellier Saint-Roch
","`${LISTEPA.BIEN[i].}","hello"
"31665968","83400-MIL-T3-2","","","49","49","83400"," HYERES "," France ","210000.00","[object Object]","{undefined}","undefined","undefined","[object Object]","","{","[object Object]","[object Object]","[object Object]","[object Object]","undefined","undefined","[object Object]","[object Object]","[object Object]","[object Object]","[object Object]","[object Object]","[object Object]","[object Object]","[object Object]","[object Object]","[object Object]","[object Object]","[object Object]","[object Object]","[object Object]","undefined","[object Object]","[object Object]","undefined","undefined","undefined","`${LISTEPA.BIEN[i].}"," ","83400-MIL"," 1 place Rondelet ","34000"," Montpellier ","+33 9 87 52 53 35","[object Object]","
L'ADRESSE EFFICIENCE - MONTPELLIER SAINT-ROCH - L'Adresse Efficience - Montpellier Saint-Roch
","`${LISTEPA.BIEN[i].}","hello"
"31665875","83400-MIL-T2","","","49","49","83400"," HYERES "," France ","157500.00","[object Object]","{undefined}","undefined","undefined","[object Object]","","{","[object Object]","[object Object]","[object Object]","[object Object]","undefined","undefined","[object Object]","[object Object]","[object Object]","[object Object]","[object Object]","[object Object]","[object Object]","[object Object]","[object Object]","[object Object]","[object Object]","[object Object]","[object Object]","[object Object]","[object Object]","undefined","[object Object]","[object Object]","undefined","undefined","undefined","`${LISTEPA.BIEN[i].}"," ","83400-MIL"," 1 place Rondelet ","34000"," Montpellier ","+33 9 87 52 53 35","[object Object]","
L'ADRESSE EFFICIENCE - MONTPELLIER SAINT-ROCH - L'Adresse Efficience - Montpellier Saint-Roch
","`${LISTEPA.BIEN[i].}","hello"
"31665967","83400-MIL","","","","","83400"," HYERES "," France ","157500.00","[object Object]","{undefined}","undefined","undefined","[object Object]","","{","undefined","undefined","undefined","undefined","undefined","undefined","undefined","undefined","undefined","undefined","undefined","undefined","undefined","undefined","undefined","undefined","undefined","undefined","undefined","undefined","undefined","undefined","undefined","undefined","undefined","undefined","undefined","`${LISTEPA.BIEN[i].}"," ","83400-MIL"," 1 place Rondelet ","34000"," Montpellier ","+33 9 87 52 53 35","[object Object]","
L'ADRESSE EFFICIENCE - MONTPELLIER SAINT-ROCH - L'Adresse Efficience - Montpellier Saint-Roch
","`${LISTEPA.BIEN[i].}","hello"
"31499669","106","","","49","49","34170"," CASTELNAU LE LEZ "," France ","352000.00","[object Object]","{undefined}","undefined","undefined","[object Object]","","{","[object Object]","[object Object]","[object Object]","[object Object]","undefined","undefined","[object Object]","[object Object]","[object Object]","[object Object]","[object Object]","[object Object]","[object Object]","[object Object]","[object Object]","[object Object]","[object Object]","[object Object]","[object Object]","[object Object]","[object Object]","undefined","[object Object]","[object Object]","undefined","undefined","undefined","`${LISTEPA.BIEN[i].}"," ",""," 1 place Rondelet ","34000"," Montpellier ","+33 9 87 52 53 35","[object Object]","
L'ADRESSE EFFICIENCE - MONTPELLIER SAINT-ROCH - L'Adresse Efficience - Montpellier Saint-Roch
","`${LISTEPA.BIEN[i].}","hello"
"31499668","105","","","49","49","34170"," CASTELNAU LE LEZ "," France ","179000.00","[object Object]","{undefined}","undefined","undefined","[object Object]","","{","[object Object]","[object Object]","[object Object]","[object Object]","undefined","undefined","[object Object]","[object Object]","[object Object]","[object Object]","[object Object]","[object Object]","[object Object]","[object Object]","[object Object]","[object Object]","[object Object]","[object Object]","[object Object]","[object Object]","[object Object]","undefined","[object Object]","[object Object]","undefined","undefined","undefined","`${LISTEPA.BIEN[i].}"," ",""," 1 place Rondelet ","34000"," Montpellier ","+33 9 87 52 53 35","[object Object]","
L'ADRESSE EFFICIENCE - MONTPELLIER SAINT-ROCH - L'Adresse Efficience - Montpellier Saint-Roch
","`${LISTEPA.BIEN[i].}","hello"
"31499661","102","","","","","34170"," CASTELNAU LE LEZ "," France ","132000.00","[object Object]","{undefined}","undefined","undefined","[object Object]","","{","undefined","undefined","undefined","undefined","undefined","undefined","undefined","undefined","undefined","undefined","undefined","undefined","undefined","undefined","undefined","undefined","undefined","undefined","undefined","undefined","undefined","undefined","undefined","undefined","undefined","undefined","undefined","`${LISTEPA.BIEN[i].}"," ","34170-MIL"," 1 place Rondelet ","34000"," Montpellier ","+33 9 87 52 53 35","[object Object]","
L'ADRESSE EFFICIENCE - MONTPELLIER SAINT-ROCH - L'Adresse Efficience - Montpellier Saint-Roch
","`${LISTEPA.BIEN[i].}","hello"
"30150321","28","","","27","27","34000"," MONTPELLIER "," FRANCE ","132000.00","[object Object]","{undefined}","undefined","undefined","[object Object]","","{","[object Object]","[object Object]","[object Object]","[object Object]","undefined","undefined","[object Object]","[object Object]","[object Object]","[object Object]","[object Object]","[object Object]","[object Object]","[object Object]","[object Object]","[object Object]","[object Object]","[object Object]","[object Object]","[object Object]","[object Object]","undefined","[object Object]","[object Object]","undefined","undefined","undefined","`${LISTEPA.BIEN[i].}"," ",""," 1 place Rondelet ","34000"," Montpellier ","+33 9 87 52 53 35","[object Object]","
L'ADRESSE EFFICIENCE - MONTPELLIER SAINT-ROCH - L'Adresse Efficience - Montpellier Saint-Roch
","`${LISTEPA.BIEN[i].}","hello"
"31491082","101","","","","","34000"," Montpellier "," France ","700000.00","[object Object]","{undefined}","undefined","undefined","[object Object]","","{","undefined","undefined","undefined","undefined","undefined","undefined","undefined","undefined","undefined","undefined","undefined","undefined","undefined","undefined","undefined","undefined","undefined","undefined","undefined","undefined","undefined","[object Object]","undefined","undefined","[object Object]","[object Object]","[object Object]","`${LISTEPA.BIEN[i].}"," ",""," 1 place Rondelet ","34000"," Montpellier ","+33 9 87 52 53 35","[object Object]","
L'ADRESSE EFFICIENCE - MONTPELLIER SAINT-ROCH - L'Adresse Efficience - Montpellier Saint-Roch
","`${LISTEPA.BIEN[i].}","hello"
"31387915","34170-POP-T4","","","49","49","34170"," CASTELNAU LE LEZ "," France ","352000.00","[object Object]","{undefined}","undefined","undefined","[object Object]","","{","[object Object]","[object Object]","[object Object]","[object Object]","undefined","undefined","[object Object]","[object Object]","[object Object]","[object Object]","[object Object]","[object Object]","[object Object]","[object Object]","[object Object]","[object Object]","[object Object]","[object Object]","[object Object]","[object Object]","[object Object]","undefined","[object Object]","[object Object]","undefined","undefined","undefined","`${LISTEPA.BIEN[i].}"," ",""," 1 place Rondelet ","34000"," Montpellier ","+33 9 87 52 53 35","[object Object]","
L'ADRESSE EFFICIENCE - MONTPELLIER SAINT-ROCH - L'Adresse Efficience - Montpellier Saint-Roch
","`${LISTEPA.BIEN[i].}","hello"
"31387580","34170-POP","","","","","34170"," CASTELNAU LE LEZ "," France ","132000.00","[object Object]","{undefined}","undefined","undefined","[object Object]","","{","undefined","undefined","undefined","undefined","undefined","undefined","undefined","undefined","undefined","undefined","undefined","undefined","undefined","undefined","undefined","undefined","undefined","undefined","undefined","undefined","undefined","undefined","undefined","undefined","undefined","undefined","undefined","`${LISTEPA.BIEN[i].}"," ",""," 1 place Rondelet ","34000"," Montpellier ","+33 9 87 52 53 35","[object Object]","
L'ADRESSE EFFICIENCE - MONTPELLIER SAINT-ROCH - L'Adresse Efficience - Montpellier Saint-Roch
","`${LISTEPA.BIEN[i].}","hello"
"31371730","34070-CON-T3-2","","","49","49","34070"," MONTPELLIER "," France ","299500.00","[object Object]","{undefined}","undefined","undefined","[object Object]","","{","[object Object]","[object Object]","[object Object]","[object Object]","undefined","undefined","[object Object]","[object Object]","[object Object]","[object Object]","[object Object]","[object Object]","[object Object]","[object Object]","[object Object]","[object Object]","[object Object]","[object Object]","[object Object]","[object Object]","[object Object]","undefined","[object Object]","[object Object]","undefined","undefined","undefined","`${LISTEPA.BIEN[i].}"," ","34070-CON"," 1 place Rondelet ","34000"," Montpellier ","+33 9 87 52 53 35","[object Object]","
L'ADRESSE EFFICIENCE - MONTPELLIER SAINT-ROCH - L'Adresse Efficience - Montpellier Saint-Roch
","`${LISTEPA.BIEN[i].}","hello"
"31371729","34070-CON-T3","","","49","49","34070"," MONTPELLIER "," France ","275000.00","[object Object]","{undefined}","undefined","undefined","[object Object]","","{","[object Object]","[object Object]","[object Object]","[object Object]","undefined","undefined","[object Object]","[object Object]","[object Object]","[object Object]","[object Object]","[object Object]","[object Object]","[object Object]","[object Object]","[object Object]","[object Object]","[object Object]","[object Object]","[object Object]","[object Object]","undefined","[object Object]","[object Object]","undefined","undefined","undefined","`${LISTEPA.BIEN[i].}"," ","34070-CON"," 1 place Rondelet ","34000"," Montpellier ","+33 9 87 52 53 35","[object Object]","
L'ADRESSE EFFICIENCE - MONTPELLIER SAINT-ROCH - L'Adresse Efficience - Montpellier Saint-Roch
","`${LISTEPA.BIEN[i].}","hello"
"31371692","34070-CON-T3-3","","","49","49","34070"," montpellier "," France ","259000.00","[object Object]","{undefined}","undefined","undefined","[object Object]","","{","[object Object]","[object Object]","[object Object]","[object Object]","undefined","undefined","[object Object]","[object Object]","[object Object]","[object Object]","[object Object]","[object Object]","[object Object]","[object Object]","[object Object]","[object Object]","[object Object]","[object Object]","[object Object]","[object Object]","[object Object]","undefined","[object Object]","[object Object]","undefined","undefined","undefined","`${LISTEPA.BIEN[i].}"," ","34070-CON"," 1 place Rondelet ","34000"," Montpellier ","+33 9 87 52 53 35","[object Object]","
L'ADRESSE EFFICIENCE - MONTPELLIER SAINT-ROCH - L'Adresse Efficience - Montpellier Saint-Roch
","`${LISTEPA.BIEN[i].}","hello"
"31371691","34170-POP-T2","","","28","28","34170"," CASTELNAU LE LEZ "," France ","184000.00","[object Object]","{undefined}","undefined","undefined","[object Object]","","{","[object Object]","[object Object]","[object Object]","[object Object]","undefined","undefined","[object Object]","[object Object]","[object Object]","[object Object]","[object Object]","[object Object]","[object Object]","[object Object]","[object Object]","[object Object]","[object Object]","[object Object]","[object Object]","[object Object]","[object Object]","undefined","[object Object]","[object Object]","undefined","undefined","undefined","`${LISTEPA.BIEN[i].}"," ",""," 1 place Rondelet ","34000"," Montpellier ","+33 9 87 52 53 35","[object Object]","
L'ADRESSE EFFICIENCE - MONTPELLIER SAINT-ROCH - L'Adresse Efficience - Montpellier Saint-Roch
","`${LISTEPA.BIEN[i].}","hello"
"31371690","34070-CON","","","","","34070"," MONTPELLIER "," France ","259000.00","[object Object]","{undefined}","undefined","undefined","[object Object]","","{","undefined","undefined","undefined","undefined","undefined","undefined","undefined","undefined","undefined","undefined","undefined","undefined","undefined","undefined","undefined","undefined","undefined","undefined","undefined","undefined","undefined","undefined","undefined","undefined","undefined","undefined","undefined","`${LISTEPA.BIEN[i].}"," ","34070-CON"," 1 place Rondelet ","34000"," Montpellier ","+33 9 87 52 53 35","[object Object]","
L'ADRESSE EFFICIENCE - MONTPELLIER SAINT-ROCH - L'Adresse Efficience - Montpellier Saint-Roch
","`${LISTEPA.BIEN[i].}","hello"
"31371689","34430-AMB-T5","","","49","49","34430"," SAINT JEAN DE VEDAS "," France ","414000.00","[object Object]","{undefined}","undefined","undefined","[object Object]","","{","[object Object]","[object Object]","[object Object]","[object Object]","undefined","undefined","[object Object]","[object Object]","[object Object]","[object Object]","[object Object]","[object Object]","[object Object]","[object Object]","[object Object]","[object Object]","[object Object]","[object Object]","[object Object]","[object Object]","[object Object]","undefined","[object Object]","[object Object]","undefined","undefined","undefined","`${LISTEPA.BIEN[i].}"," ","34430-AMB"," 1 place Rondelet ","34000"," Montpellier ","+33 9 87 52 53 35","[object Object]","
L'ADRESSE EFFICIENCE - MONTPELLIER SAINT-ROCH - L'Adresse Efficience - Montpellier Saint-Roch
","`${LISTEPA.BIEN[i].}","hello"
"31371688","34430-AMB-T4","","","49","49","34430"," SAINT JEAN DE VEDAS "," France ","299000.00","[object Object]","{undefined}","undefined","undefined","[object Object]","","{","[object Object]","[object Object]","[object Object]","[object Object]","undefined","undefined","[object Object]","[object Object]","[object Object]","[object Object]","[object Object]","[object Object]","[object Object]","[object Object]","[object Object]","[object Object]","[object Object]","[object Object]","[object Object]","[object Object]","[object Object]","undefined","[object Object]","[object Object]","undefined","undefined","undefined","`${LISTEPA.BIEN[i].}"," ","34430-AMB"," 1 place Rondelet ","34000"," Montpellier ","+33 9 87 52 53 35","[object Object]","
L'ADRESSE EFFICIENCE - MONTPELLIER SAINT-ROCH - L'Adresse Efficience - Montpellier Saint-Roch
","`${LISTEPA.BIEN[i].}","hello"
"31371687","34430-AMB","","","","","34430"," SAINT JEAN DE VEDAS "," France ","299000.00","[object Object]","{undefined}","undefined","undefined","[object Object]","","{","undefined","undefined","undefined","undefined","undefined","undefined","undefined","undefined","undefined","undefined","undefined","undefined","undefined","undefined","undefined","undefined","undefined","undefined","undefined","undefined","undefined","undefined","undefined","undefined","undefined","undefined","undefined","`${LISTEPA.BIEN[i].}"," ","34430-AMB"," 1 place Rondelet ","34000"," Montpellier ","+33 9 87 52 53 35","[object Object]","
L'ADRESSE EFFICIENCE - MONTPELLIER SAINT-ROCH - L'Adresse Efficience - Montpellier Saint-Roch
","`${LISTEPA.BIEN[i].}","hello"
"31371527","34170-POP-T1","","","27","27","34170"," CASTELNAU LE LEZ "," France ","137000.00","[object Object]","{undefined}","undefined","undefined","[object Object]","","{","[object Object]","[object Object]","[object Object]","[object Object]","undefined","undefined","[object Object]","[object Object]","[object Object]","[object Object]","[object Object]","[object Object]","[object Object]","[object Object]","[object Object]","[object Object]","[object Object]","[object Object]","[object Object]","[object Object]","[object Object]","undefined","[object Object]","[object Object]","undefined","undefined","undefined","`${LISTEPA.BIEN[i].}"," ",""," 1 place Rondelet ","34000"," Montpellier ","+33 9 87 52 53 35","[object Object]","
L'ADRESSE EFFICIENCE - MONTPELLIER SAINT-ROCH - L'Adresse Efficience - Montpellier Saint-Roch
","`${LISTEPA.BIEN[i].}","hello"
"31370675","92","","","27","27","34000"," MONTPELLIER "," France ","285000.00","[object Object]","{undefined}","undefined","undefined","[object Object]","","{","[object Object]","[object Object]","[object Object]","[object Object]","undefined","undefined","[object Object]","[object Object]","[object Object]","[object Object]","[object Object]","[object Object]","[object Object]","[object Object]","[object Object]","[object Object]","[object Object]","[object Object]","[object Object]","[object Object]","[object Object]","undefined","[object Object]","[object Object]","undefined","undefined","undefined","`${LISTEPA.BIEN[i].}"," ",""," 1 place Rondelet ","34000"," Montpellier ","+33 9 87 52 53 35","[object Object]","
L'ADRESSE EFFICIENCE - MONTPELLIER SAINT-ROCH - L'Adresse Efficience - Montpellier Saint-Roch
","`${LISTEPA.BIEN[i].}","hello"
"31368377","90","","","","","20200"," BASTIA "," France ","248000.00","[object Object]","{undefined}","undefined","undefined","[object Object]","","{","undefined","undefined","undefined","undefined","undefined","undefined","undefined","undefined","undefined","undefined","undefined","undefined","undefined","undefined","undefined","undefined","undefined","undefined","undefined","undefined","undefined","[object Object]","undefined","undefined","[object Object]","[object Object]","[object Object]","`${LISTEPA.BIEN[i].}"," ",""," 1 place Rondelet ","34000"," Montpellier ","+33 9 87 52 53 35","[object Object]","
L'ADRESSE EFFICIENCE - MONTPELLIER SAINT-ROCH - L'Adresse Efficience - Montpellier Saint-Roch
","`${LISTEPA.BIEN[i].}","hello"
"31364538","66000-JEA-T3-3","","","49","49","66000"," PERPIGNAN "," France ","290851.00","[object Object]","{undefined}","undefined","undefined","[object Object]","","{","[object Object]","[object Object]","[object Object]","[object Object]","undefined","undefined","[object Object]","[object Object]","[object Object]","[object Object]","[object Object]","[object Object]","[object Object]","[object Object]","[object Object]","[object Object]","[object Object]","[object Object]","[object Object]","[object Object]","[object Object]","undefined","[object Object]","[object Object]","undefined","undefined","undefined","`${LISTEPA.BIEN[i].}"," ","66000-JEA"," 1 place Rondelet ","34000"," Montpellier ","+33 9 87 52 53 35","[object Object]","
L'ADRESSE EFFICIENCE - MONTPELLIER SAINT-ROCH - L'Adresse Efficience - Montpellier Saint-Roch
","`${LISTEPA.BIEN[i].}","hello"
"31364495","66000-JEA-T3","","","49","49","66000"," PERPIGNAN "," France ","284546.00","[object Object]","{undefined}","undefined","undefined","[object Object]","","{","[object Object]","[object Object]","[object Object]","[object Object]","undefined","undefined","[object Object]","[object Object]","[object Object]","[object Object]","[object Object]","[object Object]","[object Object]","[object Object]","[object Object]","[object Object]","[object Object]","[object Object]","[object Object]","[object Object]","[object Object]","undefined","[object Object]","[object Object]","undefined","undefined","undefined","`${LISTEPA.BIEN[i].}"," ",""," 1 place Rondelet ","34000"," Montpellier ","+33 9 87 52 53 35","[object Object]","
L'ADRESSE EFFICIENCE - MONTPELLIER SAINT-ROCH - L'Adresse Efficience - Montpellier Saint-Roch
","`${LISTEPA.BIEN[i].}","hello"
"31364579","66000-JEA-T3","","","49","49","66000"," PERPIGNAN "," France ","273473.00","[object Object]","{undefined}","undefined","undefined","[object Object]","","{","[object Object]","[object Object]","[object Object]","[object Object]","undefined","undefined","[object Object]","[object Object]","[object Object]","[object Object]","[object Object]","[object Object]","[object Object]","[object Object]","[object Object]","[object Object]","[object Object]","[object Object]","[object Object]","[object Object]","[object Object]","undefined","[object Object]","[object Object]","undefined","undefined","undefined","`${LISTEPA.BIEN[i].}"," ",""," 1 place Rondelet ","34000"," Montpellier ","+33 9 87 52 53 35","[object Object]","
L'ADRESSE EFFICIENCE - MONTPELLIER SAINT-ROCH - L'Adresse Efficience - Montpellier Saint-Roch
","`${LISTEPA.BIEN[i].}","hello"
"31364494","66000-JEA","","","","","66000"," PERPIGNAN "," France ","273473.00","[object Object]","{undefined}","undefined","undefined","[object Object]","","{","undefined","undefined","undefined","undefined","undefined","undefined","undefined","undefined","undefined","undefined","undefined","undefined","undefined","undefined","undefined","undefined","undefined","undefined","undefined","undefined","undefined","undefined","undefined","undefined","undefined","undefined","undefined","`${LISTEPA.BIEN[i].}"," ","66000-JEA"," 1 place Rondelet ","34000"," Montpellier ","+33 9 87 52 53 35","[object Object]","
L'ADRESSE EFFICIENCE - MONTPELLIER SAINT-ROCH - L'Adresse Efficience - Montpellier Saint-Roch
","`${LISTEPA.BIEN[i].}","hello"
"31250250","34000-NAM-T4","","","49","49","34000"," MONTPELLIER "," France ","473000.00","[object Object]","{undefined}","undefined","undefined","[object Object]","","{","[object Object]","[object Object]","[object Object]","[object Object]","undefined","undefined","[object Object]","[object Object]","[object Object]","[object Object]","[object Object]","[object Object]","[object Object]","[object Object]","[object Object]","[object Object]","[object Object]","[object Object]","[object Object]","[object Object]","[object Object]","undefined","[object Object]","[object Object]","undefined","undefined","undefined","`${LISTEPA.BIEN[i].}"," ","34000-NAM"," 1 place Rondelet ","34000"," Montpellier ","+33 9 87 52 53 35","[object Object]","
L'ADRESSE EFFICIENCE - MONTPELLIER SAINT-ROCH - L'Adresse Efficience - Montpellier Saint-Roch
","`${LISTEPA.BIEN[i].}","hello"
"31250249","34000-NAM-T3","","","49","49","34000"," MONTPELLIER "," France ","343000.00","[object Object]","{undefined}","undefined","undefined","[object Object]","","{","[object Object]","[object Object]","[object Object]","[object Object]","undefined","undefined","[object Object]","[object Object]","[object Object]","[object Object]","[object Object]","[object Object]","[object Object]","[object Object]","[object Object]","[object Object]","[object Object]","[object Object]","[object Object]","[object Object]","[object Object]","undefined","[object Object]","[object Object]","undefined","undefined","undefined","`${LISTEPA.BIEN[i].}"," ","34000-NAM"," 1 place Rondelet ","34000"," Montpellier ","+33 9 87 52 53 35","[object Object]","
L'ADRESSE EFFICIENCE - MONTPELLIER SAINT-ROCH - L'Adresse Efficience - Montpellier Saint-Roch
","`${LISTEPA.BIEN[i].}","hello"
"31250248","34000-NAM-T2","","","49","49","34000"," MONTPELLIER "," France ","208000.00","[object Object]","{undefined}","undefined","undefined","[object Object]","","{","[object Object]","[object Object]","[object Object]","[object Object]","undefined","undefined","[object Object]","[object Object]","[object Object]","[object Object]","[object Object]","[object Object]","[object Object]","[object Object]","[object Object]","[object Object]","[object Object]","[object Object]","[object Object]","[object Object]","[object Object]","undefined","[object Object]","[object Object]","undefined","undefined","undefined","`${LISTEPA.BIEN[i].}"," ","34000-NAM"," 1 place Rondelet ","34000"," Montpellier ","+33 9 87 52 53 35","[object Object]","
L'ADRESSE EFFICIENCE - MONTPELLIER SAINT-ROCH - L'Adresse Efficience - Montpellier Saint-Roch
","`${LISTEPA.BIEN[i].}","hello"
"31250247","34000-NAM","","","","","34000"," MONTPELLIER "," France ","145000.00","[object Object]","{undefined}","undefined","undefined","[object Object]","","{","undefined","undefined","undefined","undefined","undefined","undefined","undefined","undefined","undefined","undefined","undefined","undefined","undefined","undefined","undefined","undefined","undefined","undefined","undefined","undefined","undefined","undefined","undefined","undefined","undefined","undefined","undefined","`${LISTEPA.BIEN[i].}"," ","34000-NAM"," 1 place Rondelet ","34000"," Montpellier ","+33 9 87 52 53 35","[object Object]","
L'ADRESSE EFFICIENCE - MONTPELLIER SAINT-ROCH - L'Adresse Efficience - Montpellier Saint-Roch
","`${LISTEPA.BIEN[i].}","hello"
"31250156","34000-ORG-T3","","","49","49","34000"," MONTPELLIER "," France ","325000.00","[object Object]","{undefined}","undefined","undefined","[object Object]","","{","[object Object]","[object Object]","[object Object]","[object Object]","undefined","undefined","[object Object]","[object Object]","[object Object]","[object Object]","[object Object]","[object Object]","[object Object]","[object Object]","[object Object]","[object Object]","[object Object]","[object Object]","[object Object]","[object Object]","[object Object]","undefined","[object Object]","[object Object]","undefined","undefined","undefined","`${LISTEPA.BIEN[i].}"," ",""," 1 place Rondelet ","34000"," Montpellier ","+33 9 87 52 53 35","[object Object]","
L'ADRESSE EFFICIENCE - MONTPELLIER SAINT-ROCH - L'Adresse Efficience - Montpellier Saint-Roch
","`${LISTEPA.BIEN[i].}","hello"
"31250155","34000-ORG-T2","","","49","49","34000"," MONTPELLIER "," France ","226000.00","[object Object]","{undefined}","undefined","undefined","[object Object]","","{","[object Object]","[object Object]","[object Object]","[object Object]","undefined","undefined","[object Object]","[object Object]","[object Object]","[object Object]","[object Object]","[object Object]","[object Object]","[object Object]","[object Object]","[object Object]","[object Object]","[object Object]","[object Object]","[object Object]","[object Object]","undefined","[object Object]","[object Object]","undefined","undefined","undefined","`${LISTEPA.BIEN[i].}"," ",""," 1 place Rondelet ","34000"," Montpellier ","+33 9 87 52 53 35","[object Object]","
L'ADRESSE EFFICIENCE - MONTPELLIER SAINT-ROCH - L'Adresse Efficience - Montpellier Saint-Roch
","`${LISTEPA.BIEN[i].}","hello"
"31250154","34000-ORG","","","","","34000"," MONTPELLIER "," France ","226000.00","[object Object]","{undefined}","undefined","undefined","[object Object]","","{","undefined","undefined","undefined","undefined","undefined","undefined","undefined","undefined","undefined","undefined","undefined","undefined","undefined","undefined","undefined","undefined","undefined","undefined","undefined","undefined","undefined","undefined","undefined","undefined","undefined","undefined","undefined","`${LISTEPA.BIEN[i].}"," ","34000-ORG"," 1 place Rondelet ","34000"," Montpellier ","+33 9 87 52 53 35","[object Object]","
L'ADRESSE EFFICIENCE - MONTPELLIER SAINT-ROCH - L'Adresse Efficience - Montpellier Saint-Roch
","`${LISTEPA.BIEN[i].}","hello"
"31213308","70","","","28","28","34090"," MONTPELLIER "," France ","299000.00","[object Object]","{2220}","undefined","undefined","[object Object]","","{","[object Object]","[object Object]","[object Object]","[object Object]","undefined","undefined","[object Object]","[object Object]","[object Object]","[object Object]","[object Object]","[object Object]","[object Object]","[object Object]","[object Object]","[object Object]","[object Object]","[object Object]","[object Object]","[object Object]","[object Object]","undefined","[object Object]","[object Object]","undefined","undefined","undefined","`${LISTEPA.BIEN[i].}"," ",""," 1 place Rondelet ","34000"," Montpellier ","+33 9 87 52 53 35","[object Object]","
L'ADRESSE EFFICIENCE - MONTPELLIER SAINT-ROCH - L'Adresse Efficience - Montpellier Saint-Roch
","`${LISTEPA.BIEN[i].}","hello"
"31206505","69","","","27","27","34500"," Beziers "," France ","120334.58","[object Object]","{undefined}","undefined","undefined","[object Object]","","{","[object Object]","[object Object]","[object Object]","[object Object]","undefined","undefined","[object Object]","[object Object]","[object Object]","[object Object]","[object Object]","[object Object]","[object Object]","[object Object]","[object Object]","[object Object]","[object Object]","[object Object]","[object Object]","[object Object]","[object Object]","undefined","[object Object]","[object Object]","undefined","undefined","undefined","`${LISTEPA.BIEN[i].}"," ",""," 1 place Rondelet ","34000"," Montpellier ","+33 9 87 52 53 35","[object Object]","
L'ADRESSE EFFICIENCE - MONTPELLIER SAINT-ROCH - L'Adresse Efficience - Montpellier Saint-Roch
","`${LISTEPA.BIEN[i].}","hello"
"31187105","67","","","49","49","34070"," MONTPELLIER "," France ","155000.00","[object Object]","{undefined}","undefined","undefined","[object Object]","","{","[object Object]","[object Object]","[object Object]","[object Object]","undefined","undefined","[object Object]","[object Object]","[object Object]","[object Object]","[object Object]","[object Object]","[object Object]","[object Object]","[object Object]","[object Object]","[object Object]","[object Object]","[object Object]","[object Object]","[object Object]","undefined","[object Object]","[object Object]","undefined","undefined","undefined","`${LISTEPA.BIEN[i].}"," ",""," 1 place Rondelet ","34000"," Montpellier ","+33 9 87 52 53 35","[object Object]","
L'ADRESSE EFFICIENCE - MONTPELLIER SAINT-ROCH - L'Adresse Efficience - Montpellier Saint-Roch
","`${LISTEPA.BIEN[i].}","hello"
"31187104","66","","","49","49","34070"," MONTPELLIER "," France ","228000.00","[object Object]","{undefined}","undefined","undefined","[object Object]","","{","[object Object]","[object Object]","[object Object]","[object Object]","undefined","undefined","[object Object]","[object Object]","[object Object]","[object Object]","[object Object]","[object Object]","[object Object]","[object Object]","[object Object]","[object Object]","[object Object]","[object Object]","[object Object]","[object Object]","[object Object]","undefined","[object Object]","[object Object]","undefined","undefined","undefined","`${LISTEPA.BIEN[i].}"," ",""," 1 place Rondelet ","34000"," Montpellier ","+33 9 87 52 53 35","[object Object]","
L'ADRESSE EFFICIENCE - MONTPELLIER SAINT-ROCH - L'Adresse Efficience - Montpellier Saint-Roch
","`${LISTEPA.BIEN[i].}","hello"
"31187103","65","","","49","49","34070"," MONTPELLIER "," France ","339000.00","[object Object]","{undefined}","undefined","undefined","[object Object]","","{","[object Object]","[object Object]","[object Object]","[object Object]","undefined","undefined","[object Object]","[object Object]","[object Object]","[object Object]","[object Object]","[object Object]","[object Object]","[object Object]","[object Object]","[object Object]","[object Object]","[object Object]","[object Object]","[object Object]","[object Object]","undefined","[object Object]","[object Object]","undefined","undefined","undefined","`${LISTEPA.BIEN[i].}"," ",""," 1 place Rondelet ","34000"," Montpellier ","+33 9 87 52 53 35","[object Object]","
L'ADRESSE EFFICIENCE - MONTPELLIER SAINT-ROCH - L'Adresse Efficience - Montpellier Saint-Roch
","`${LISTEPA.BIEN[i].}","hello"
"31187080","64","","","49","49","34070"," MONTPELLIER "," France ","379000.00","[object Object]","{undefined}","undefined","undefined","[object Object]","","{","[object Object]","[object Object]","[object Object]","[object Object]","undefined","undefined","[object Object]","[object Object]","[object Object]","[object Object]","[object Object]","[object Object]","[object Object]","[object Object]","[object Object]","[object Object]","[object Object]","[object Object]","[object Object]","[object Object]","[object Object]","undefined","[object Object]","[object Object]","undefined","undefined","undefined","`${LISTEPA.BIEN[i].}"," ",""," 1 place Rondelet ","34000"," Montpellier ","+33 9 87 52 53 35","[object Object]","
L'ADRESSE EFFICIENCE - MONTPELLIER SAINT-ROCH - L'Adresse Efficience - Montpellier Saint-Roch
","`${LISTEPA.BIEN[i].}","hello"
"31187079","63","","","49","49","34070"," MONTPELLIER "," France ","789000.00","[object Object]","{undefined}","undefined","undefined","[object Object]","","{","[object Object]","[object Object]","[object Object]","[object Object]","undefined","undefined","[object Object]","[object Object]","[object Object]","[object Object]","[object Object]","[object Object]","[object Object]","[object Object]","[object Object]","[object Object]","[object Object]","[object Object]","[object Object]","[object Object]","[object Object]","undefined","[object Object]","[object Object]","undefined","undefined","undefined","`${LISTEPA.BIEN[i].}"," ",""," 1 place Rondelet ","34000"," Montpellier ","+33 9 87 52 53 35","[object Object]","
L'ADRESSE EFFICIENCE - MONTPELLIER SAINT-ROCH - L'Adresse Efficience - Montpellier Saint-Roch
","`${LISTEPA.BIEN[i].}","hello"
"31060238","53","","","49","49","34070"," MONTPELLIER "," France ","306000.00","[object Object]","{undefined}","undefined","undefined","[object Object]","","{","[object Object]","[object Object]","[object Object]","[object Object]","undefined","undefined","[object Object]","[object Object]","[object Object]","[object Object]","[object Object]","[object Object]","[object Object]","[object Object]","[object Object]","[object Object]","[object Object]","[object Object]","[object Object]","[object Object]","[object Object]","undefined","[object Object]","[object Object]","undefined","undefined","undefined","`${LISTEPA.BIEN[i].}"," ","34070-LIB"," 1 place Rondelet ","34000"," Montpellier ","+33 9 87 52 53 35","[object Object]","
L'ADRESSE EFFICIENCE - MONTPELLIER SAINT-ROCH - L'Adresse Efficience - Montpellier Saint-Roch
","`${LISTEPA.BIEN[i].}","hello"
"31060235","52","","","49","49","34070"," MONTPELLIER "," France ","272500.00","[object Object]","{undefined}","undefined","undefined","[object Object]","","{","[object Object]","[object Object]","[object Object]","[object Object]","undefined","undefined","[object Object]","[object Object]","[object Object]","[object Object]","[object Object]","[object Object]","[object Object]","[object Object]","[object Object]","[object Object]","[object Object]","[object Object]","[object Object]","[object Object]","[object Object]","undefined","[object Object]","[object Object]","undefined","undefined","undefined","`${LISTEPA.BIEN[i].}"," ","34070-LIB"," 1 place Rondelet ","34000"," Montpellier ","+33 9 87 52 53 35","[object Object]","
L'ADRESSE EFFICIENCE - MONTPELLIER SAINT-ROCH - L'Adresse Efficience - Montpellier Saint-Roch
","`${LISTEPA.BIEN[i].}","hello"
"31060234","51","","","49","49","34070"," MONTPELLIER "," France ","182900.00","[object Object]","{undefined}","undefined","undefined","[object Object]","","{","[object Object]","[object Object]","[object Object]","[object Object]","undefined","undefined","[object Object]","[object Object]","[object Object]","[object Object]","[object Object]","[object Object]","[object Object]","[object Object]","[object Object]","[object Object]","[object Object]","[object Object]","[object Object]","[object Object]","[object Object]","undefined","[object Object]","[object Object]","undefined","undefined","undefined","`${LISTEPA.BIEN[i].}"," ",""," 1 place Rondelet ","34000"," Montpellier ","+33 9 87 52 53 35","[object Object]","
L'ADRESSE EFFICIENCE - MONTPELLIER SAINT-ROCH - L'Adresse Efficience - Montpellier Saint-Roch
","`${LISTEPA.BIEN[i].}","hello"
"31060233","50","","","49","49","34070"," MONTPELLIER "," France ","139900.00","[object Object]","{undefined}","undefined","undefined","[object Object]","","{","[object Object]","[object Object]","[object Object]","[object Object]","undefined","undefined","[object Object]","[object Object]","[object Object]","[object Object]","[object Object]","[object Object]","[object Object]","[object Object]","[object Object]","[object Object]","[object Object]","[object Object]","[object Object]","[object Object]","[object Object]","undefined","[object Object]","[object Object]","undefined","undefined","undefined","`${LISTEPA.BIEN[i].}"," ",""," 1 place Rondelet ","34000"," Montpellier ","+33 9 87 52 53 35","[object Object]","
L'ADRESSE EFFICIENCE - MONTPELLIER SAINT-ROCH - L'Adresse Efficience - Montpellier Saint-Roch
","`${LISTEPA.BIEN[i].}","hello"
"31060232","49","","","","","34070"," MONTPELLIER "," France ","139900.00","[object Object]","{undefined}","undefined","undefined","[object Object]","","{","undefined","undefined","undefined","undefined","undefined","undefined","undefined","undefined","undefined","undefined","undefined","undefined","undefined","undefined","undefined","undefined","undefined","undefined","undefined","undefined","undefined","undefined","undefined","undefined","undefined","undefined","undefined","`${LISTEPA.BIEN[i].}"," ","34070-LIB"," 1 place Rondelet ","34000"," Montpellier ","+33 9 87 52 53 35","[object Object]","
L'ADRESSE EFFICIENCE - MONTPELLIER SAINT-ROCH - L'Adresse Efficience - Montpellier Saint-Roch
","`${LISTEPA.BIEN[i].}","hello"
"30728589","45","","","29","29","34000"," MONTPELLIER "," France ","299000.00","[object Object]","{undefined}","undefined","undefined","[object Object]","","{","[object Object]","[object Object]","[object Object]","[object Object]","undefined","undefined","[object Object]","[object Object]","[object Object]","[object Object]","[object Object]","[object Object]","[object Object]","[object Object]","[object Object]","[object Object]","[object Object]","[object Object]","[object Object]","[object Object]","[object Object]","undefined","[object Object]","[object Object]","undefined","undefined","undefined","`${LISTEPA.BIEN[i].}"," ",""," 1 place Rondelet ","34000"," Montpellier ","+33 9 87 52 53 35","[object Object]","
L'ADRESSE EFFICIENCE - MONTPELLIER SAINT-ROCH - L'Adresse Efficience - Montpellier Saint-Roch
","`${LISTEPA.BIEN[i].}","hello"
"30703258","42","","","","","30900"," NIMES "," France ","68815.00","[object Object]","{undefined}","undefined","undefined","[object Object]","","{","undefined","undefined","undefined","undefined","undefined","undefined","undefined","undefined","undefined","undefined","undefined","undefined","undefined","undefined","undefined","undefined","undefined","undefined","undefined","undefined","undefined","undefined","undefined","undefined","undefined","undefined","undefined","`${LISTEPA.BIEN[i].}"," ","30900-KA"," 1 place Rondelet ","34000"," Montpellier ","+33 9 87 52 53 35","[object Object]","
L'ADRESSE EFFICIENCE - MONTPELLIER SAINT-ROCH - L'Adresse Efficience - Montpellier Saint-Roch
","`${LISTEPA.BIEN[i].}","hello"
"30677581","41","","","61","61","34540"," BALARUC LES BAINS "," France ","183500.00","[object Object]","{undefined}","undefined","undefined","[object Object]","","{","[object Object]","[object Object]","[object Object]","[object Object]","undefined","undefined","[object Object]","[object Object]","[object Object]","[object Object]","[object Object]","[object Object]","[object Object]","[object Object]","[object Object]","[object Object]","[object Object]","[object Object]","[object Object]","[object Object]","[object Object]","undefined","[object Object]","[object Object]","undefined","undefined","undefined","`${LISTEPA.BIEN[i].}"," ",""," 1 place Rondelet ","34000"," Montpellier ","+33 9 87 52 53 35","[object Object]","
L'ADRESSE EFFICIENCE - MONTPELLIER SAINT-ROCH - L'Adresse Efficience - Montpellier Saint-Roch
","`${LISTEPA.BIEN[i].}","hello"
"30497590","35","","","61","61","34540"," BALARUC LES BAINS "," France ","165500.00","[object Object]","{undefined}","undefined","undefined","[object Object]","","{","[object Object]","[object Object]","[object Object]","[object Object]","undefined","undefined","[object Object]","[object Object]","[object Object]","[object Object]","[object Object]","[object Object]","[object Object]","[object Object]","[object Object]","[object Object]","[object Object]","[object Object]","[object Object]","[object Object]","[object Object]","undefined","[object Object]","[object Object]","undefined","undefined","undefined","`${LISTEPA.BIEN[i].}"," ",""," 1 place Rondelet ","34000"," Montpellier ","+33 9 87 52 53 35","[object Object]","
L'ADRESSE EFFICIENCE - MONTPELLIER SAINT-ROCH - L'Adresse Efficience - Montpellier Saint-Roch
","`${LISTEPA.BIEN[i].}","hello"
"29897772","13","","","","","34540"," BALARUC LES BAINS "," France ","280000.00","[object Object]","{undefined}","undefined","undefined","[object Object]","","{","undefined","undefined","undefined","undefined","undefined","undefined","undefined","undefined","undefined","undefined","undefined","undefined","undefined","undefined","undefined","undefined","undefined","undefined","undefined","undefined","undefined","undefined","undefined","undefined","undefined","undefined","undefined","`${LISTEPA.BIEN[i].}"," ",""," 1 place Rondelet ","34000"," Montpellier ","+33 9 87 52 53 35","[object Object]","
L'ADRESSE EFFICIENCE - MONTPELLIER SAINT-ROCH - L'Adresse Efficience - Montpellier Saint-Roch
","`${LISTEPA.BIEN[i].}","hello"
"29897736","9","","","29","29","34080"," MONTPELLIER "," France ","158000.00","[object Object]","{undefined}","[object Object]","undefined","[object Object]","","{","[object Object]","[object Object]","[object Object]","[object Object]","undefined","undefined","[object Object]","[object Object]","[object Object]","[object Object]","[object Object]","[object Object]","[object Object]","[object Object]","[object Object]","[object Object]","[object Object]","[object Object]","[object Object]","[object Object]","[object Object]","undefined","[object Object]","[object Object]","undefined","undefined","undefined","`${LISTEPA.BIEN[i].}"," ",""," 1 place Rondelet ","34000"," Montpellier ","+33 9 87 52 53 35","[object Object]","
L'ADRESSE EFFICIENCE - MONTPELLIER SAINT-ROCH - L'Adresse Efficience - Montpellier Saint-Roch
","`${LISTEPA.BIEN[i].}","hello"
"29897730","3","","","28","28","34090"," MONTPELLIER "," France ","144000.00","[object Object]","{undefined}","undefined","undefined","[object Object]","","{","[object Object]","[object Object]","[object Object]","[object Object]","undefined","undefined","[object Object]","[object Object]","[object Object]","[object Object]","[object Object]","[object Object]","[object Object]","[object Object]","[object Object]","[object Object]","[object Object]","[object Object]","[object Object]","[object Object]","[object Object]","undefined","[object Object]","[object Object]","undefined","undefined","undefined","`${LISTEPA.BIEN[i].}"," ",""," 1 place Rondelet ","34000"," Montpellier ","+33 9 87 52 53 35","[object Object]","
L'ADRESSE EFFICIENCE - MONTPELLIER SAINT-ROCH - L'Adresse Efficience - Montpellier Saint-Roch
","`${LISTEPA.BIEN[i].}","hello"
"29897683","2018-0198","","","27","27","34200"," Sete "," France ","82500.00","[object Object]","{undefined}","[object Object]","undefined","[object Object]","","{","[object Object]","[object Object]","[object Object]","[object Object]","undefined","undefined","[object Object]","[object Object]","[object Object]","[object Object]","[object Object]","[object Object]","[object Object]","[object Object]","[object Object]","[object Object]","[object Object]","[object Object]","[object Object]","[object Object]","[object Object]","undefined","[object Object]","[object Object]","undefined","undefined","undefined","`${LISTEPA.BIEN[i].}"," ",""," 1 place Rondelet ","34000"," Montpellier ","+33 9 87 52 53 35","[object Object]","
L'ADRESSE EFFICIENCE - MONTPELLIER SAINT-ROCH - L'Adresse Efficience - Montpellier Saint-Roch
","`${LISTEPA.BIEN[i].}","hello"
"31019145","47","","","","","83440"," FAYENCE "," France ","586000.00","[object Object]","{undefined}","undefined","undefined","[object Object]","","{","undefined","undefined","undefined","undefined","undefined","undefined","undefined","undefined","undefined","undefined","undefined","undefined","undefined","undefined","undefined","undefined","undefined","undefined","undefined","undefined","undefined","[object Object]","undefined","undefined","[object Object]","[object Object]","[object Object]","`${LISTEPA.BIEN[i].}"," ","8507"," 1 place Rondelet ","34000"," Montpellier ","+33 9 87 52 53 35","[object Object]","
L'ADRESSE EFFICIENCE - MONTPELLIER SAINT-ROCH - L'Adresse Efficience - Montpellier Saint-Roch
","`${LISTEPA.BIEN[i].}","hello"
"31696256","111","","","","","34000"," Montpellier "," France ","115000.00","[object Object]","{undefined}","undefined","undefined","[object Object]","","{","undefined","undefined","undefined","undefined","undefined","undefined","undefined","undefined","undefined","undefined","undefined","undefined","undefined","undefined","undefined","undefined","undefined","undefined","undefined","undefined","undefined","undefined","undefined","undefined","undefined","undefined","undefined","`${LISTEPA.BIEN[i].}"," ",""," 1 place Rondelet ","34000"," Montpellier ","+33 9 87 52 53 35","[object Object]","
L'ADRESSE EFFICIENCE - MONTPELLIER SAINT-ROCH - L'Adresse Efficience - Montpellier Saint-Roch
","`${LISTEPA.BIEN[i].}","hello"
"31357534","87","","","28","28","13600"," LA CIOTAT "," France ","103000.00","[object Object]","{400}","[object Object]","undefined","[object Object]","","{","[object Object]","[object Object]","[object Object]","[object Object]","undefined","undefined","[object Object]","[object Object]","[object Object]","[object Object]","[object Object]","[object Object]","[object Object]","[object Object]","[object Object]","[object Object]","[object Object]","[object Object]","[object Object]","[object Object]","[object Object]","undefined","[object Object]","[object Object]","undefined","undefined","undefined","`${LISTEPA.BIEN[i].}"," ",""," 1 place Rondelet ","34000"," Montpellier ","+33 9 87 52 53 35","[object Object]","
L'ADRESSE EFFICIENCE - MONTPELLIER SAINT-ROCH - L'Adresse Efficience - Montpellier Saint-Roch
","`${LISTEPA.BIEN[i].}","hello"
"30712043","43","","","28","28","34070"," MONTPELLIER "," France ","149000.00","[object Object]","{undefined}","[object Object]","undefined","[object Object]","","{","[object Object]","[object Object]","[object Object]","[object Object]","undefined","undefined","[object Object]","[object Object]","[object Object]","[object Object]","[object Object]","[object Object]","[object Object]","[object Object]","[object Object]","[object Object]","[object Object]","[object Object]","[object Object]","[object Object]","[object Object]","undefined","[object Object]","[object Object]","undefined","undefined","undefined","`${LISTEPA.BIEN[i].}"," ","1115"," 1 place Rondelet ","34000"," Montpellier ","+33 9 87 52 53 35","[object Object]","
L'ADRESSE EFFICIENCE - MONTPELLIER SAINT-ROCH - L'Adresse Efficience - Montpellier Saint-Roch
","`${LISTEPA.BIEN[i].}","hello"
"30177238","33","","","31","31","34000"," MONTPELLIER "," France ","735000.00","[object Object]","{2964}","[object Object]","undefined","[object Object]","","{","[object Object]","[object Object]","[object Object]","[object Object]","undefined","undefined","[object Object]","[object Object]","[object Object]","[object Object]","[object Object]","[object Object]","[object Object]","[object Object]","[object Object]","[object Object]","[object Object]","[object Object]","[object Object]","[object Object]","[object Object]","undefined","[object Object]","[object Object]","undefined","undefined","undefined","`${LISTEPA.BIEN[i].}"," ","20180204"," 1 place Rondelet ","34000"," Montpellier ","+33 9 87 52 53 35","[object Object]","
L'ADRESSE EFFICIENCE - MONTPELLIER SAINT-ROCH - L'Adresse Efficience - Montpellier Saint-Roch
","`${LISTEPA.BIEN[i].}","hello"
"31776492","34000-SUN-T3-cpy","","","49","49","34070"," MONTPELLIER "," France ","243000.00","[object Object]","{undefined}","undefined","undefined","[object Object]","","{","[object Object]","[object Object]","[object Object]","[object Object]","undefined","undefined","[object Object]","[object Object]","[object Object]","[object Object]","[object Object]","[object Object]","[object Object]","[object Object]","[object Object]","[object Object]","[object Object]","[object Object]","[object Object]","[object Object]","[object Object]","undefined","[object Object]","[object Object]","undefined","undefined","undefined","`${LISTEPA.BIEN[i].}"," ","34000-SUN"," 1 place Rondelet ","34000"," Montpellier ","+33 9 87 52 53 35","[object Object]","
L'ADRESSE EFFICIENCE - MONTPELLIER SAINT-ROCH - L'Adresse Efficience - Montpellier Saint-Roch
","`${LISTEPA.BIEN[i].}","hello"
"31520185","108","","","29","29","34070"," MONTPELLIER "," France ","190000.00","[object Object]","{1800}","undefined","undefined","[object Object]","","{","[object Object]","[object Object]","[object Object]","[object Object]","undefined","undefined","[object Object]","[object Object]","[object Object]","[object Object]","[object Object]","[object Object]","[object Object]","[object Object]","[object Object]","[object Object]","[object Object]","[object Object]","[object Object]","[object Object]","[object Object]","undefined","[object Object]","[object Object]","undefined","undefined","undefined","`${LISTEPA.BIEN[i].}"," ",""," 1 place Rondelet ","34000"," Montpellier ","+33 9 87 52 53 35","[object Object]","
L'ADRESSE EFFICIENCE - MONTPELLIER SAINT-ROCH - L'Adresse Efficience - Montpellier Saint-Roch
","`${LISTEPA.BIEN[i].}","hello"
"31184644","34070-FAU","","","","","34070"," MONTPELLIER "," France ","155000.00","[object Object]","{undefined}","undefined","undefined","[object Object]","","{","undefined","undefined","undefined","undefined","undefined","undefined","undefined","undefined","undefined","undefined","undefined","undefined","undefined","undefined","undefined","undefined","undefined","undefined","undefined","undefined","undefined","undefined","undefined","undefined","undefined","undefined","undefined","`${LISTEPA.BIEN[i].}"," ",""," 1 place Rondelet ","34000"," Montpellier ","+33 9 87 52 53 35","[object Object]","
L'ADRESSE EFFICIENCE - MONTPELLIER SAINT-ROCH - L'Adresse Efficience - Montpellier Saint-Roch
","`${LISTEPA.BIEN[i].}","hello"